$$SOE
2460721.500000000, A.D. 2025-Feb-15 00:00:00.0000, 1.604482632330512E+08, -4.173663329267055E+08, -1.643620161445022E+06,
2460728.500000000, A.D. 2025-Feb-22 00:00:00.0000, 1.704553189976012E+08, -4.141306869924853E+08, -1.739803716353953E+06,
2460735.500000000, A.D. 2025-Mar-01 00:00:00.0000, 1.803702588246965E+08, -4.106712831741556E+08, -1.835047036452651E+06,
2460742.500000000, A.D. 2025-Mar-08 00:00:00.0000, 1.901881813667793E+08, -4.069910246437461E+08, -1.929303589053750E+06,
2460749.500000000, A.D. 2025-Mar-15 00:00:00.0000, 1.999042873916726E+08, -4.030929119498804E+08, -2.022527836887926E+06,
2460756.500000000, A.D. 2025-Mar-22 00:00:00.0000, 2.095138789565769E+08, -3.989800387803638E+08, -2.114675006850123E+06,
2460763.500000000, A.D. 2025-Mar-29 00:00:00.0000, 2.190123598026892E+08, -3.946555900051654E+08, -2.205701166185975E+06,
2460770.500000000, A.D. 2025-Apr-05 00:00:00.0000, 2.283952373011142E+08, -3.901228388667877E+08, -2.295563379814655E+06,
2460777.500000000, A.D. 2025-Apr-12 00:00:00.0000, 2.376581240292541E+08, -3.853851432195786E+08, -2.384219763925672E+06,
2460784.500000000, A.D. 2025-Apr-19 00:00:00.0000, 2.467967387953635E+08, -3.804459417040427E+08, -2.471629491003573E+06,
2460791.500000000, A.D. 2025-Apr-26 00:00:00.0000, 2.558069073879063E+08, -3.753087500632857E+08, -2.557752788080215E+06,
2460798.500000000, A.D. 2025-May-03 00:00:00.0000, 2.646845631684289E+08, -3.699771575861766E+08, -2.642550937330216E+06,
2460805.500000000, A.D. 2025-May-10 00:00:00.0000, 2.734257475414652E+08, -3.644548236719534E+08, -2.725986281157196E+06,
2460812.500000000, A.D. 2025-May-17 00:00:00.0000, 2.820266103430648E+08, -3.587454745601060E+08, -2.808022238718688E+06,
2460819.500000000, A.D. 2025-May-24 00:00:00.0000, 2.904834103270662E+08, -3.528529002823988E+08, -2.888623354468077E+06,
2460826.500000000, A.D. 2025-May-31 00:00:00.0000, 2.987925161725401E+08, -3.467809515288621E+08, -2.967755391648978E+06,
2460833.500000000, A.D. 2025-Jun-07 00:00:00.0000, 3.069504076165881E+08, -3.405335352265123E+08, -3.045385335416481E+06,
2460840.500000000, A.D. 2025-Jun-14 00:00:00.0000, 3.149536743512626E+08, -3.341146095003347E+08, -3.121481143189177E+06,
2460847.500000000, A.D. 2025-Jun-21 00:00:00.0000, 3.227990139036333E+08, -3.275281812875524E+08, -3.196011621388406E+06,
2460854.500000000, A.D. 2025-Jun-28 00:00:00.0000, 3.304832316313362E+08, -3.207783048387285E+08, -3.268946571507677E+06,
2460861.500000000, A.D. 2025-Jul-05 00:00:00.0000, 3.380032413233335E+08, -3.138690789489848E+08, -3.340256890239462E+06,
2460868.500000000, A.D. 2025-Jul-12 00:00:00.0000, 3.453560652218248E+08, -3.068046437260181E+08, -3.409914580191627E+06,
2460875.500000000, A.D. 2025-Jul-19 00:00:00.0000, 3.525388336612142E+08, -2.995891774721501E+08, -3.477892735470727E+06,
2460882.500000000, A.D. 2025-Jul-26 00:00:00.0000, 3.595487845392861E+08, -2.922268937392606E+08, -3.544165525862798E+06,
2460889.500000000, A.D. 2025-Aug-02 00:00:00.0000, 3.663832626900294E+08, -2.847220385366533E+08, -3.608708183690608E+06,
2460896.500000000, A.D. 2025-Aug-09 00:00:00.0000, 3.730397191846047E+08, -2.770788877071537E+08, -3.671496996562958E+06,
2460903.500000000, A.D. 2025-Aug-16 00:00:00.0000, 3.795157106398224E+08, -2.693017445340379E+08, -3.732509318153948E+06,
2460910.500000000, A.D. 2025-Aug-23 00:00:00.0000, 3.858088988293518E+08, -2.613949375603715E+08, -3.791723622409567E+06,
2460917.500000000, A.D. 2025-Aug-30 00:00:00.0000, 3.919170509306115E+08, -2.533628179045349E+08, -3.849119572777703E+06,
2460924.500000000, A.D. 2025-Sep-06 00:00:00.0000, 3.978380389944608E+08, -2.452097550709291E+08, -3.904677894289851E+06,
2460931.500000000, A.D. 2025-Sep-13 00:00:00.0000, 4.035698369710335E+08, -2.369401337387927E+08, -3.958380097918555E+06,
2460938.500000000, A.D. 2025-Sep-20 00:00:00.0000, 4.091105185675598E+08, -2.285583531721232E+08, -4.010208491754040E+06,
2460945.500000000, A.D. 2025-Sep-27 00:00:00.0000, 4.144582570002941E+08, -2.200688261371940E+08, -4.060146321695730E+06,
2460952.500000000, A.D. 2025-Oct-04 00:00:00.0000, 4.196113246281819E+08, -2.114759767875608E+08, -4.108177812452301E+06,
2460959.500000000, A.D. 2025-Oct-11 00:00:00.0000, 4.245680920983376E+08, -2.027842384589893E+08, -4.154288151543051E+06,
2460966.500000000, A.D. 2025-Oct-18 00:00:00.0000, 4.293270272901109E+08, -1.939980516477866E+08, -4.198463464729026E+06,
2460973.500000000, A.D. 2025-Oct-25 00:00:00.0000, 4.338866942000839E+08, -1.851218621602339E+08, -4.240690794826612E+06,
2460980.500000000, A.D. 2025-Nov-01 00:00:00.0000, 4.382457518100861E+08, -1.761601194161131E+08, -4.280958086371429E+06,
2460987.500000000, A.D. 2025-Nov-08 00:00:00.0000, 4.424029529751639E+08, -1.671172749361537E+08, -4.319254182053059E+06,
2460994.500000000, A.D. 2025-Nov-15 00:00:00.0000, 4.463571434811329E+08, -1.579977810701633E+08, -4.355568849539891E+06,
2461001.500000000, A.D. 2025-Nov-22 00:00:00.0000, 4.501072616757053E+08, -1.488060897431904E+08, -4.389892857949540E+06,
2461008.500000000, A.D. 2025-Nov-29 00:00:00.0000, 4.536523385223482E+08, -1.395466500816368E+08, -4.422217997338697E+06,
2461015.500000000, A.D. 2025-Dec-06 00:00:00.0000, 4.569914958033785E+08, -1.302239050536128E+08, -4.452536843497254E+06,
2461022.500000000, A.D. 2025-Dec-13 00:00:00.0000, 4.601239429082948E+08, -1.208422904932708E+08, -4.480842583455712E+06,
2461029.500000000, A.D. 2025-Dec-20 00:00:00.0000, 4.630489757008203E+08, -1.114062354838437E+08, -4.507129138759136E+06,
2461036.500000000, A.D. 2025-Dec-27 00:00:00.0000, 4.657659763921793E+08, -1.019201615050886E+08, -4.531391276344672E+06,
2461043.500000000, A.D. 2026-Jan-03 00:00:00.0000, 4.682744129636556E+08, -9.238848095819597E+07, -4.553624623471893E+06,
2461050.500000000, A.D. 2026-Jan-10 00:00:00.0000, 4.705738382502881E+08, -8.281559574471930E+07, -4.573825652206905E+06,
2461057.500000000, A.D. 2026-Jan-17 00:00:00.0000, 4.726638889201351E+08, -7.320589598860410E+07, -4.591991662202779E+06,
2461064.500000000, A.D. 2026-Jan-24 00:00:00.0000, 4.745442844288927E+08, -6.356375887611577E+07, -4.608120766966138E+06,
2461071.500000000, A.D. 2026-Jan-31 00:00:00.0000, 4.762148259751448E+08, -5.389354761870784E+07, -4.622211886249218E+06,
2461078.500000000, A.D. 2026-Feb-07 00:00:00.0000, 4.776753955192937E+08, -4.419961059423304E+07, -4.634264754792474E+06,
2461085.500000000, A.D. 2026-Feb-14 00:00:00.0000, 4.789259551196855E+08, -3.448628068026646E+07, -4.644279971857872E+06,
2461092.500000000, A.D. 2026-Feb-21 00:00:00.0000, 4.799665469723362E+08, -2.475787420044736E+07, -4.652259079968279E+06,
2461099.500000000, A.D. 2026-Feb-28 00:00:00.0000, 4.807972930686440E+08, -1.501868832691782E+07, -4.658204478988560E+06,
2461106.500000000, A.D. 2026-Mar-07 00:00:00.0000, 4.814183924141071E+08, -5.272998885891106E+06, -4.662119145927077E+06,
2461113.500000000, A.D. 2026-Mar-14 00:00:00.0000, 4.818301185846913E+08, 4.474939102647125E+06, -4.664006605691467E+06,
2461120.500000000, A.D. 2026-Mar-21 00:00:00.0000, 4.820328194037203E+08, 1.422089105170967E+07, -4.663871079457562E+06,
2461127.500000000, A.D. 2026-Mar-28 00:00:00.0000, 4.820269167315766E+08, 2.396064363185371E+07, -4.661717542066734E+06,
2461134.500000000, A.D. 2026-Apr-04 00:00:00.0000, 4.818129057668158E+08, 3.369000582931715E+07, -4.657551711745553E+06,
2461141.500000000, A.D. 2026-Apr-11 00:00:00.0000, 4.813913541341275E+08, 4.340480987863409E+07, -4.651380026474593E+06,
2461148.500000000, A.D. 2026-Apr-18 00:00:00.0000, 4.807629009191658E+08, 5.310091206392263E+07, -4.643209621975161E+06,
2461155.500000000, A.D. 2026-Apr-25 00:00:00.0000, 4.799282556964755E+08, 6.277419340472708E+07, -4.633048314134028E+06,
2461162.500000000, A.D. 2026-May-02 00:00:00.0000, 4.788881975816386E+08, 7.242056019821152E+07, -4.620904590928461E+06,
2461169.500000000, A.D. 2026-May-09 00:00:00.0000, 4.776435744328213E+08, 8.203594435286395E+07, -4.606787630553618E+06,
2461176.500000000, A.D. 2026-May-16 00:00:00.0000, 4.761953025798501E+08, 9.161630365307598E+07, -4.590707369066551E+06,
2461183.500000000, A.D. 2026-May-23 00:00:00.0000, 4.745443671315710E+08, 1.011576229782659E+08, -4.572674538749900E+06,
2461190.500000000, A.D. 2026-May-30 00:00:00.0000, 4.726918207826362E+08, 1.106559167988983E+08, -4.552700460310310E+06,
2461197.500000000, A.D. 2026-Jun-06 00:00:00.0000, 4.706387808046787E+08, 1.201072296780032E+08, -4.530796827280663E+06,
2461204.500000000, A.D. 2026-Jun-13 00:00:00.0000, 4.683864278885162E+08, 1.295076349773629E+08, -4.506975802873954E+06,
2461211.500000000, A.D. 2026-Jun-20 00:00:00.0000, 4.659360063349252E+08, 1.388532346954837E+08, -4.481250144481547E+06,
2461218.500000000, A.D. 2026-Jun-27 00:00:00.0000, 4.632888238950945E+08, 1.481401600993019E+08, -4.453633228020430E+06,
2461225.500000000, A.D. 2026-Jul-04 00:00:00.0000, 4.604462512607526E+08, 1.573645723763460E+08, -4.424139035687961E+06,
2461232.500000000, A.D. 2026-Jul-11 00:00:00.0000, 4.574097214579304E+08, 1.665226631768585E+08, -4.392782141457602E+06,
2461239.500000000, A.D. 2026-Jul-18 00:00:00.0000, 4.541807292369678E+08, 1.756106550729847E+08, -4.359577700974226E+06,
2461246.500000000, A.D. 2026-Jul-25 00:00:00.0000, 4.507608304830455E+08, 1.846248019391506E+08, -4.324541448087268E+06,
2461253.500000000, A.D. 2026-Aug-01 00:00:00.0000, 4.471516416952594E+08, 1.935613892069682E+08, -4.287689706544340E+06,
2461260.500000000, A.D. 2026-Aug-08 00:00:00.0000, 4.433548397492183E+08, 2.024167339601284E+08, -4.249039439638004E+06,
2461267.500000000, A.D. 2026-Aug-15 00:00:00.0000, 4.393721623579680E+08, 2.111871853204168E+08, -4.208608339241326E+06,
2461274.500000000, A.D. 2026-Aug-22 00:00:00.0000, 4.352054084683792E+08, 2.198691263468074E+08, -4.166414784721673E+06,
2461281.500000000, A.D. 2026-Aug-29 00:00:00.0000, 4.308564363025874E+08, 2.284589760775476E+08, -4.122477573804796E+06,
2461288.500000000, A.D. 2026-Sep-05 00:00:00.0000, 4.263271611797905E+08, 2.369531888496481E+08, -4.076815855398536E+06,
$$EOE